[{"OBJECT_NAME":"ONEWEB-0296","OBJECT_ID":"2021-075L","EPOCH":"2025-12-17T07:58:00.449760","MEAN_MOTION":13.12420907,"ECCENTRICITY":0.0001352,"INCLINATION":87.8935,"RA_OF_ASC_NODE":26.7831,"ARG_OF_PERICENTER":104.5099,"MEAN_ANOMALY":255.618,"EPHEMERIS_TYPE":0,"CLASSIFICATION_TYPE":"U","NORAD_CAT_ID":49085,"ELEMENT_SET_NO":999,"REV_AT_EPOCH":21072,"BSTAR":0.0011312145,"MEAN_MOTION_DOT":4.2e-6,"MEAN_MOTION_DDOT":0},{"OBJECT_NAME":"ONEWEB-0297","OBJECT_ID":"2021-075M","EPOCH":"2025-12-17T03:12:48.566880","MEAN_MOTION":13.12461871,"ECCENTRICITY":0.00017464,"INCLINATION":87.8927,"RA_OF_ASC_NODE":26.8539,"ARG_OF_PERICENTER":100.4451,"MEAN_ANOMALY":259.6874,"EPHEMERIS_TYPE":0,"CLASSIFICATION_TYPE":"U","NORAD_CAT_ID":49086,"ELEMENT_SET_NO":999,"REV_AT_EPOCH":21130,"BSTAR":-0.0010072309,"MEAN_MOTION_DOT":-3.5e-6,"MEAN_MOTION_DDOT":0},{"OBJECT_NAME":"ONEWEB-0298","OBJECT_ID":"2021-075N","EPOCH":"2025-12-17T04:09:16.702272","MEAN_MOTION":13.17648264,"ECCENTRICITY":0.00018818,"INCLINATION":87.9104,"RA_OF_ASC_NODE":42.0627,"ARG_OF_PERICENTER":99.8155,"MEAN_ANOMALY":260.3189,"EPHEMERIS_TYPE":0,"CLASSIFICATION_TYPE":"U","NORAD_CAT_ID":49087,"ELEMENT_SET_NO":999,"REV_AT_EPOCH":20965,"BSTAR":0.00011220313,"MEAN_MOTION_DOT":5.6e-7,"MEAN_MOTION_DDOT":0},{"OBJECT_NAME":"ONEWEB-0299","OBJECT_ID":"2021-075P","EPOCH":"2025-12-17T04:11:30.558336","MEAN_MOTION":13.17648054,"ECCENTRICITY":0.00017488,"INCLINATION":87.9117,"RA_OF_ASC_NODE":42.0246,"ARG_OF_PERICENTER":105.6232,"MEAN_ANOMALY":254.5093,"EPHEMERIS_TYPE":0,"CLASSIFICATION_TYPE":"U","NORAD_CAT_ID":49088,"ELEMENT_SET_NO":999,"REV_AT_EPOCH":20963,"BSTAR":7.4069058e-5,"MEAN_MOTION_DOT":4.2e-7,"MEAN_MOTION_DDOT":0},{"OBJECT_NAME":"ONEWEB-0300","OBJECT_ID":"2021-075Q","EPOCH":"2025-12-17T08:30:50.312736","MEAN_MOTION":13.12395237,"ECCENTRICITY":0.00021013,"INCLINATION":87.8939,"RA_OF_ASC_NODE":26.7703,"ARG_OF_PERICENTER":97.9518,"MEAN_ANOMALY":262.1849,"EPHEMERIS_TYPE":0,"CLASSIFICATION_TYPE":"U","NORAD_CAT_ID":49089,"ELEMENT_SET_NO":999,"REV_AT_EPOCH":21135,"BSTAR":-0.00080920752,"MEAN_MOTION_DOT":-2.78e-6,"MEAN_MOTION_DDOT":0},{"OBJECT_NAME":"ONEWEB-0301","OBJECT_ID":"2021-075R","EPOCH":"2025-12-17T08:07:36.422400","MEAN_MOTION":13.12378314,"ECCENTRICITY":0.000217,"INCLINATION":87.8937,"RA_OF_ASC_NODE":26.7756,"ARG_OF_PERICENTER":97.1139,"MEAN_ANOMALY":263.0236,"EPHEMERIS_TYPE":0,"CLASSIFICATION_TYPE":"U","NORAD_CAT_ID":49090,"ELEMENT_SET_NO":999,"REV_AT_EPOCH":21071,"BSTAR":0.00050161889,"MEAN_MOTION_DOT":1.93e-6,"MEAN_MOTION_DDOT":0},{"OBJECT_NAME":"ONEWEB-0302","OBJECT_ID":"2021-075S","EPOCH":"2025-12-17T04:08:52.566432","MEAN_MOTION":13.12456173,"ECCENTRICITY":0.00014322,"INCLINATION":87.8937,"RA_OF_ASC_NODE":26.8166,"ARG_OF_PERICENTER":94.6498,"MEAN_ANOMALY":265.4794,"EPHEMERIS_TYPE":0,"CLASSIFICATION_TYPE":"U","NORAD_CAT_ID":49091,"ELEMENT_SET_NO":999,"REV_AT_EPOCH":21067,"BSTAR":0.0013922992,"MEAN_MOTION_DOT":5.14e-6,"MEAN_MOTION_DDOT":0},{"OBJECT_NAME":"ONEWEB-0304","OBJECT_ID":"2021-075T","EPOCH":"2025-12-17T05:24:24.185088","MEAN_MOTION":13.17650618,"ECCENTRICITY":0.00017025,"INCLINATION":87.9117,"RA_OF_ASC_NODE":42.0454,"ARG_OF_PERICENTER":103.6482,"MEAN_ANOMALY":256.4839,"EPHEMERIS_TYPE":0,"CLASSIFICATION_TYPE":"U","NORAD_CAT_ID":49092,"ELEMENT_SET_NO":999,"REV_AT_EPOCH":20961,"BSTAR":0.00014229346,"MEAN_MOTION_DOT":6.8e-7,"MEAN_MOTION_DDOT":0},{"OBJECT_NAME":"ONEWEB-0305","OBJECT_ID":"2021-075U","EPOCH":"2025-12-17T05:14:40.679232","MEAN_MOTION":13.17647545,"ECCENTRICITY":0.00016848,"INCLINATION":87.9121,"RA_OF_ASC_NODE":42.0239,"ARG_OF_PERICENTER":113.8163,"MEAN_ANOMALY":246.3145,"EPHEMERIS_TYPE":0,"CLASSIFICATION_TYPE":"U","NORAD_CAT_ID":49093,"ELEMENT_SET_NO":999,"REV_AT_EPOCH":20964,"BSTAR":4.9497882e-5,"MEAN_MOTION_DOT":3.2e-7,"MEAN_MOTION_DDOT":0},{"OBJECT_NAME":"ONEWEB-0308","OBJECT_ID":"2021-075V","EPOCH":"2025-12-17T03:59:19.551264","MEAN_MOTION":13.1249643,"ECCENTRICITY":0.000178,"INCLINATION":87.8936,"RA_OF_ASC_NODE":26.8109,"ARG_OF_PERICENTER":95.762,"MEAN_ANOMALY":264.3712,"EPHEMERIS_TYPE":0,"CLASSIFICATION_TYPE":"U","NORAD_CAT_ID":49094,"ELEMENT_SET_NO":999,"REV_AT_EPOCH":21068,"BSTAR":0.0011881515,"MEAN_MOTION_DOT":4.41e-6,"MEAN_MOTION_DDOT":0},{"OBJECT_NAME":"ONEWEB-0309","OBJECT_ID":"2021-075W","EPOCH":"2025-12-17T03:30:11.917728","MEAN_MOTION":13.17648023,"ECCENTRICITY":0.00013896,"INCLINATION":87.9118,"RA_OF_ASC_NODE":42.0542,"ARG_OF_PERICENTER":93.3327,"MEAN_ANOMALY":266.7964,"EPHEMERIS_TYPE":0,"CLASSIFICATION_TYPE":"U","NORAD_CAT_ID":49095,"ELEMENT_SET_NO":999,"REV_AT_EPOCH":20960,"BSTAR":0.00012043857,"MEAN_MOTION_DOT":6.0e-7,"MEAN_MOTION_DDOT":0},{"OBJECT_NAME":"ONEWEB-0310","OBJECT_ID":"2021-075X","EPOCH":"2025-12-17T08:00:24.300576","MEAN_MOTION":13.12411866,"ECCENTRICITY":0.0001652,"INCLINATION":87.8929,"RA_OF_ASC_NODE":26.8143,"ARG_OF_PERICENTER":95.081,"MEAN_ANOMALY":265.0507,"EPHEMERIS_TYPE":0,"CLASSIFICATION_TYPE":"U","NORAD_CAT_ID":49096,"ELEMENT_SET_NO":999,"REV_AT_EPOCH":21133,"BSTAR":0.0010192026,"MEAN_MOTION_DOT":3.79e-6,"MEAN_MOTION_DDOT":0},{"OBJECT_NAME":"ONEWEB-0311","OBJECT_ID":"2021-075Y","EPOCH":"2025-12-17T03:39:54.847296","MEAN_MOTION":13.17649813,"ECCENTRICITY":0.00018012,"INCLINATION":87.9116,"RA_OF_ASC_NODE":42.0486,"ARG_OF_PERICENTER":111.9672,"MEAN_ANOMALY":248.1651,"EPHEMERIS_TYPE":0,"CLASSIFICATION_TYPE":"U","NORAD_CAT_ID":49097,"ELEMENT_SET_NO":999,"REV_AT_EPOCH":20965,"BSTAR":0.00032395561,"MEAN_MOTION_DOT":1.39e-6,"MEAN_MOTION_DDOT":0},{"OBJECT_NAME":"ONEWEB-0312","OBJECT_ID":"2021-075Z","EPOCH":"2025-12-17T04:01:47.480160","MEAN_MOTION":13.17648502,"ECCENTRICITY":0.00014743,"INCLINATION":87.9107,"RA_OF_ASC_NODE":42.071,"ARG_OF_PERICENTER":107.81,"MEAN_ANOMALY":252.3193,"EPHEMERIS_TYPE":0,"CLASSIFICATION_TYPE":"U","NORAD_CAT_ID":49098,"ELEMENT_SET_NO":999,"REV_AT_EPOCH":20963,"BSTAR":0.00014394216,"MEAN_MOTION_DOT":6.9e-7,"MEAN_MOTION_DDOT":0},{"OBJECT_NAME":"ONEWEB-0313","OBJECT_ID":"2021-075AA","EPOCH":"2025-12-17T04:08:52.975968","MEAN_MOTION":13.17647918,"ECCENTRICITY":0.00017584,"INCLINATION":87.9105,"RA_OF_ASC_NODE":42.0772,"ARG_OF_PERICENTER":103.4869,"MEAN_ANOMALY":256.6458,"EPHEMERIS_TYPE":0,"CLASSIFICATION_TYPE":"U","NORAD_CAT_ID":49099,"ELEMENT_SET_NO":999,"REV_AT_EPOCH":20962,"BSTAR":8.401761e-6,"MEAN_MOTION_DOT":1.6e-7,"MEAN_MOTION_DDOT":0},{"OBJECT_NAME":"ONEWEB-0314","OBJECT_ID":"2021-075AB","EPOCH":"2025-12-17T05:09:49.693536","MEAN_MOTION":13.17648321,"ECCENTRICITY":0.00015079,"INCLINATION":87.912,"RA_OF_ASC_NODE":42.0221,"ARG_OF_PERICENTER":110.8237,"MEAN_ANOMALY":249.3056,"EPHEMERIS_TYPE":0,"CLASSIFICATION_TYPE":"U","NORAD_CAT_ID":49100,"ELEMENT_SET_NO":999,"REV_AT_EPOCH":20960,"BSTAR":0.00016302645,"MEAN_MOTION_DOT":7.6e-7,"MEAN_MOTION_DDOT":0},{"OBJECT_NAME":"ONEWEB-0315","OBJECT_ID":"2021-075AC","EPOCH":"2025-12-17T01:52:48.061056","MEAN_MOTION":13.12560231,"ECCENTRICITY":0.00019177,"INCLINATION":87.8939,"RA_OF_ASC_NODE":26.8137,"ARG_OF_PERICENTER":108.0668,"MEAN_ANOMALY":252.067,"EPHEMERIS_TYPE":0,"CLASSIFICATION_TYPE":"U","NORAD_CAT_ID":49101,"ELEMENT_SET_NO":999,"REV_AT_EPOCH":21128,"BSTAR":0.00050632142,"MEAN_MOTION_DOT":1.95e-6,"MEAN_MOTION_DDOT":0}]
