ONEWEB-0296             
1 49085U 21075L   25351.33194965  .00000420  00000+0  11312-2 0  9992
2 49085  87.8935  26.7831 0001352 104.5099 255.6180 13.12420907210722
ONEWEB-0297             
1 49086U 21075M   25351.13389545 -.00000350  00000+0 -10072-2 0  9997
2 49086  87.8927  26.8539 0001746 100.4451 259.6874 13.12461871211308
ONEWEB-0298             
1 49087U 21075N   25351.17310998  .00000056  00000+0  11220-3 0  9996
2 49087  87.9104  42.0627 0001881  99.8155 260.3189 13.17648264209658
ONEWEB-0299             
1 49088U 21075P   25351.17465924  .00000042  00000+0  74069-4 0  9993
2 49088  87.9117  42.0246 0001748 105.6232 254.5093 13.17648054209638
ONEWEB-0300             
1 49089U 21075Q   25351.35474899 -.00000278  00000+0 -80921-3 0  9991
2 49089  87.8939  26.7703 0002101  97.9518 262.1849 13.12395237211354
ONEWEB-0301             
1 49090U 21075R   25351.33861600  .00000193  00000+0  50162-3 0  9999
2 49090  87.8937  26.7756 0002170  97.1139 263.0236 13.12378314210715
ONEWEB-0302             
1 49091U 21075S   25351.17283063  .00000514  00000+0  13923-2 0  9993
2 49091  87.8937  26.8166 0001432  94.6498 265.4794 13.12456173210672
ONEWEB-0304             
1 49092U 21075T   25351.22527992  .00000068  00000+0  14229-3 0  9997
2 49092  87.9117  42.0454 0001702 103.6482 256.4839 13.17650618209615
ONEWEB-0305             
1 49093U 21075U   25351.21852638  .00000032  00000+0  49498-4 0  9993
2 49093  87.9121  42.0239 0001684 113.8163 246.3145 13.17647545209646
ONEWEB-0308             
1 49094U 21075V   25351.16619851  .00000441  00000+0  11882-2 0  9994
2 49094  87.8936  26.8109 0001780  95.7620 264.3712 13.12496430210685
ONEWEB-0309             
1 49095U 21075W   25351.14597127  .00000060  00000+0  12044-3 0  9993
2 49095  87.9118  42.0542 0001389  93.3327 266.7964 13.17648023209600
ONEWEB-0310             
1 49096U 21075X   25351.33361459  .00000379  00000+0  10192-2 0  9996
2 49096  87.8929  26.8143 0001652  95.0810 265.0507 13.12411866211332
ONEWEB-0311             
1 49097U 21075Y   25351.15271814  .00000139  00000+0  32396-3 0  9997
2 49097  87.9116  42.0486 0001801 111.9672 248.1651 13.17649813209656
ONEWEB-0312             
1 49098U 21075Z   25351.16791065  .00000069  00000+0  14394-3 0  9994
2 49098  87.9107  42.0710 0001474 107.8100 252.3193 13.17648502209633
ONEWEB-0313             
1 49099U 21075AA  25351.17283537  .00000016  00000+0  84018-5 0  9990
2 49099  87.9105  42.0772 0001758 103.4869 256.6458 13.17647918209629
ONEWEB-0314             
1 49100U 21075AB  25351.21515849  .00000076  00000+0  16303-3 0  9998
2 49100  87.9120  42.0221 0001507 110.8237 249.3056 13.17648321209601
ONEWEB-0315             
1 49101U 21075AC  25351.07833404  .00000195  00000+0  50632-3 0  9998
2 49101  87.8939  26.8137 0001917 108.0668 252.0670 13.12560231211285
